STARLINK-5594           
1 55742U 23028B   26068.86986295 -.00001335  00000+0 -10407-3 0  9991
2 55742  69.9991 244.1407 0002452 272.6317  87.4561 14.98332681166066
SHIYAN-24C 03           
1 58652U 23206C   26068.89147317  .00001350  00000+0  11928-3 0  9993
2 58652  97.3969  41.7507 0002411  66.6237 293.5240 14.97896938120432
